{
  "description": "Constant.com / Vultr.com GeoFeed",
  "asn": 20473,
  "email": "support@vultr.com",
  "updated": "2024-04-18T07:55:40-04:00",
  "subnets": [
    {
      "ip_prefix": "8.3.29.0/24",
      "alpha2code": "US",
      "region": "US-CA",
      "city": "Los Angeles",
      "postal_code": "90012"
    },
    {
      "ip_prefix": "8.6.8.0/24",
      "alpha2code": "US",
      "region": "US-CA",
      "city": "Los Angeles",
      "postal_code": "90012"
    },
    {
      "ip_prefix": "8.6.193.0/24",
      "alpha2code": "US",
      "region": "US-FL",
      "city": "Miami",
      "postal_code": "33142"
    },
    {
      "ip_prefix": "8.9.3.0/24",
      "alpha2code": "US",
      "region": "US-NJ",
      "city": "Piscataway",
      "postal_code": "08854"
    },
    {
      "ip_prefix": "8.9.4.0/24",
      "alpha2code": "US",
      "region": "US-NJ",
      "city": "Piscataway",
      "postal_code": "08854"
    },
    {
      "ip_prefix": "8.9.5.0/24",
      "alpha2code": "US",
      "region": "US-NJ",
      "city": "Piscataway",
      "postal_code": "08854"
    },
    {
      "ip_prefix": "8.9.6.0/24",
      "alpha2code": "US",
      "region": "US-NJ",
      "city": "Piscataway",
      "postal_code": "08854"
    },
    {
      "ip_prefix": "8.9.8.0/24",
      "alpha2code": "US",
      "region": "US-NJ",
      "city": "Piscataway",
      "postal_code": "08854"
    },
    {
      "ip_prefix": "8.9.11.0/24",
      "alpha2code": "US",
      "region": "US-NJ",
      "city": "Piscataway",
      "postal_code": "08854"
    },
    {
      "ip_prefix": "8.9.15.0/24",
      "alpha2code": "US",
      "region": "US-NJ",
      "city": "Piscataway",
      "postal_code": "08854"
    },
    {
      "ip_prefix": "8.9.30.0/23",
      "alpha2code": "US",
      "region": "US-NJ",
      "city": "Piscataway",
      "postal_code": "08854"
    },
    {
      "ip_prefix": "8.9.36.0/23",
      "alpha2code": "US",
      "region": "US-NJ",
      "city": "Piscataway",
      "postal_code": "08854"
    },
    {
      "ip_prefix": "8.12.16.0/24",
      "alpha2code": "US",
      "region": "US-IL",
      "city": "Elk Grove Village",
      "postal_code": "60007"
    },
    {
      "ip_prefix": "8.12.17.0/24",
      "alpha2code": "US",
      "region": "US-NJ",
      "city": "Piscataway",
      "postal_code": "08854"
    },
    {
      "ip_prefix": "8.12.18.0/24",
      "alpha2code": "US",
      "region": "US-NJ",
      "city": "Piscataway",
      "postal_code": "08854"
    },
    {
      "ip_prefix": "8.12.22.0/24",
      "alpha2code": "US",
      "region": "US-NJ",
      "city": "Piscataway",
      "postal_code": "08854"
    },
    {
      "ip_prefix": "43.224.32.0/22",
      "alpha2code": "JP",
      "region": "JP-13",
      "city": "Shinagawa-ku",
      "postal_code": "142-0002"
    },
    {
      "ip_prefix": "45.32.0.0/21",
      "alpha2code": "US",
      "region": "US-NJ",
      "city": "Piscataway",
      "postal_code": "08854"
    },
    {
      "ip_prefix": "45.32.8.0/21",
      "alpha2code": "JP",
      "region": "JP-13",
      "city": "Shinagawa-ku",
      "postal_code": "142-0002"
    },
    {
      "ip_prefix": "45.32.16.0/21",
      "alpha2code": "JP",
      "region": "JP-13",
      "city": "Shinagawa-ku",
      "postal_code": "142-0002"
    },
    {
      "ip_prefix": "45.32.24.0/21",
      "alpha2code": "JP",
      "region": "JP-13",
      "city": "Shinagawa-ku",
      "postal_code": "142-0002"
    },
    {
      "ip_prefix": "45.32.32.0/19",
      "alpha2code": "JP",
      "region": "JP-13",
      "city": "Shinagawa-ku",
      "postal_code": "142-0002"
    },
    {
      "ip_prefix": "45.32.64.0/19",
      "alpha2code": "US",
      "region": "US-CA",
      "city": "Los Angeles",
      "postal_code": "90012"
    },
    {
      "ip_prefix": "45.32.96.0/19",
      "alpha2code": "SG",
      "region": "SG-05",
      "city": "Singapore",
      "postal_code": "627753"
    },
    {
      "ip_prefix": "45.32.128.0/20",
      "alpha2code": "US",
      "region": "US-CA",
      "city": "Santa Clara",
      "postal_code": "95054"
    },
    {
      "ip_prefix": "45.32.144.0/21",
      "alpha2code": "FR",
      "region": "FR-93",
      "city": "AUBERVILLIERS",
      "postal_code": "93300"
    },
    {
      "ip_prefix": "45.32.152.0/21",
      "alpha2code": "DE",
      "region": "DE-HE",
      "city": "Frankfurt",
      "postal_code": "D-60314"
    },
    {
      "ip_prefix": "45.32.160.0/20",
      "alpha2code": "US",
      "region": "US-FL",
      "city": "Miami",
      "postal_code": "33142"
    },
    {
      "ip_prefix": "45.32.176.0/21",
      "alpha2code": "GB",
      "region": "GB-LND",
      "city": "London",
      "postal_code": "E1 6QR"
    },
    {
      "ip_prefix": "45.32.184.0/22",
      "alpha2code": "NL",
      "region": "NL-NH",
      "city": "Amsterdam",
      "postal_code": "2031"
    },
    {
      "ip_prefix": "45.32.188.0/22",
      "alpha2code": "AU",
      "region": "AU-NSW",
      "city": "Alexandria",
      "postal_code": "2015"
    },
    {
      "ip_prefix": "45.32.192.0/20",
      "alpha2code": "US",
      "region": "US-TX",
      "city": "Dallas",
      "postal_code": "75201"
    },
    {
      "ip_prefix": "45.32.208.0/20",
      "alpha2code": "US",
      "region": "US-GA",
      "city": "Atlanta",
      "postal_code": "30318"
    },
    {
      "ip_prefix": "45.32.224.0/21",
      "alpha2code": "US",
      "region": "US-WA",
      "city": "Kent",
      "postal_code": "98032"
    },
    {
      "ip_prefix": "45.32.232.0/21",
      "alpha2code": "NL",
      "region": "NL-NH",
      "city": "Amsterdam",
      "postal_code": "2031"
    },
    {
      "ip_prefix": "45.32.240.0/21",
      "alpha2code": "AU",
      "region": "AU-NSW",
      "city": "Alexandria",
      "postal_code": "2015"
    },
    {
      "ip_prefix": "45.32.248.0/21",
      "alpha2code": "JP",
      "region": "JP-13",
      "city": "Shinagawa-ku",
      "postal_code": "142-0002"
    },
    {
      "ip_prefix": "45.63.0.0/20",
      "alpha2code": "US",
      "region": "US-NJ",
      "city": "Piscataway",
      "postal_code": "08854"
    },
    {
      "ip_prefix": "45.63.16.0/21",
      "alpha2code": "US",
      "region": "US-NJ",
      "city": "Piscataway",
      "postal_code": "08854"
    },
    {
      "ip_prefix": "45.63.24.0/21",
      "alpha2code": "AU",
      "region": "AU-NSW",
      "city": "Alexandria",
      "postal_code": "2015"
    },
    {
      "ip_prefix": "45.63.32.0/21",
      "alpha2code": "US",
      "region": "US-WA",
      "city": "Kent",
      "postal_code": "98032"
    },
    {
      "ip_prefix": "45.63.40.0/22",
      "alpha2code": "NL",
      "region": "NL-NH",
      "city": "Amsterdam",
      "postal_code": "2031"
    },
    {
      "ip_prefix": "45.63.44.0/24",
      "alpha2code": "US",
      "region": "US-GA",
      "city": "Atlanta",
      "postal_code": "30318"
    },
    {
      "ip_prefix": "45.63.46.0/23",
      "alpha2code": "US",
      "region": "US-GA",
      "city": "Atlanta",
      "postal_code": "30318"
    },
    {
      "ip_prefix": "45.63.48.0/20",
      "alpha2code": "US",
      "region": "US-CA",
      "city": "Los Angeles",
      "postal_code": "90012"
    },
    {
      "ip_prefix": "45.63.64.0/20",
      "alpha2code": "US",
      "region": "US-IL",
      "city": "Elk Grove Village",
      "postal_code": "60007"
    },
    {
      "ip_prefix": "45.63.80.0/20",
      "alpha2code": "US",
      "region": "US-CA",
      "city": "Santa Clara",
      "postal_code": "95054"
    },
    {
      "ip_prefix": "45.63.96.0/21",
      "alpha2code": "GB",
      "region": "GB-LND",
      "city": "London",
      "postal_code": "E1 6QR"
    },
    {
      "ip_prefix": "45.63.104.0/21",
      "alpha2code": "US",
      "region": "US-FL",
      "city": "Miami",
      "postal_code": "33142"
    },
    {
      "ip_prefix": "45.63.112.0/22",
      "alpha2code": "FR",
      "region": "FR-93",
      "city": "AUBERVILLIERS",
      "postal_code": "93300"
    },
    {
      "ip_prefix": "45.63.116.0/22",
      "alpha2code": "DE",
      "region": "DE-HE",
      "city": "Frankfurt",
      "postal_code": "D-60314"
    },
    {
      "ip_prefix": "45.63.120.0/22",
      "alpha2code": "JP",
      "region": "JP-13",
      "city": "Shinagawa-ku",
      "postal_code": "142-0002"
    },
    {
      "ip_prefix": "45.63.124.0/22",
      "alpha2code": "JP",
      "region": "JP-13",
      "city": "Shinagawa-ku",
      "postal_code": "142-0002"
    },
    {
      "ip_prefix": "45.76.0.0/20",
      "alpha2code": "US",
      "region": "US-NJ",
      "city": "Piscataway",
      "postal_code": "08854"
    },
    {
      "ip_prefix": "45.76.16.0/20",
      "alpha2code": "US",
      "region": "US-IL",
      "city": "Elk Grove Village",
      "postal_code": "60007"
    },
    {
      "ip_prefix": "45.76.32.0/21",
      "alpha2code": "NL",
      "region": "NL-NH",
      "city": "Amsterdam",
      "postal_code": "2031"
    },
    {
      "ip_prefix": "45.76.40.0/22",
      "alpha2code": "NL",
      "region": "NL-NH",
      "city": "Amsterdam",
      "postal_code": "2031"
    },
    {
      "ip_prefix": "45.76.44.0/22",
      "alpha2code": "FR",
      "region": "FR-93",
      "city": "AUBERVILLIERS",
      "postal_code": "93300"
    },
    {
      "ip_prefix": "45.76.48.0/21",
      "alpha2code": "JP",
      "region": "JP-13",
      "city": "Shinagawa-ku",
      "postal_code": "142-0002"
    },
    {
      "ip_prefix": "45.76.56.0/22",
      "alpha2code": "US",
      "region": "US-TX",
      "city": "Dallas",
      "postal_code": "75201"
    },
    {
      "ip_prefix": "45.76.60.0/22",
      "alpha2code": "US",
      "region": "US-GA",
      "city": "Atlanta",
      "postal_code": "30318"
    },
    {
      "ip_prefix": "45.76.64.0/20",
      "alpha2code": "US",
      "region": "US-CA",
      "city": "Los Angeles",
      "postal_code": "90012"
    },
    {
      "ip_prefix": "45.76.80.0/20",
      "alpha2code": "DE",
      "region": "DE-HE",
      "city": "Frankfurt",
      "postal_code": "D-60314"
    },
    {
      "ip_prefix": "45.76.96.0/20",
      "alpha2code": "JP",
      "region": "JP-13",
      "city": "Shinagawa-ku",
      "postal_code": "142-0002"
    },
    {
      "ip_prefix": "45.76.112.0/20",
      "alpha2code": "AU",
      "region": "AU-NSW",
      "city": "Alexandria",
      "postal_code": "2015"
    },
    {
      "ip_prefix": "45.76.128.0/20",
      "alpha2code": "GB",
      "region": "GB-LND",
      "city": "London",
      "postal_code": "E1 6QR"
    },
    {
      "ip_prefix": "45.76.144.0/21",
      "alpha2code": "SG",
      "region": "SG-05",
      "city": "Singapore",
      "postal_code": "627753"
    },
    {
      "ip_prefix": "45.76.152.0/21",
      "alpha2code": "SG",
      "region": "SG-05",
      "city": "Singapore",
      "postal_code": "627753"
    },
    {
      "ip_prefix": "45.76.160.0/22",
      "alpha2code": "SG",
      "region": "SG-05",
      "city": "Singapore",
      "postal_code": "627753"
    },
    {
      "ip_prefix": "45.76.164.0/22",
      "alpha2code": "US",
      "region": "US-NJ",
      "city": "Piscataway",
      "postal_code": "08854"
    },
    {
      "ip_prefix": "45.76.168.0/21",
      "alpha2code": "US",
      "region": "US-CA",
      "city": "Los Angeles",
      "postal_code": "90012"
    },
    {
      "ip_prefix": "45.76.176.0/20",
      "alpha2code": "SG",
      "region": "SG-05",
      "city": "Singapore",
      "postal_code": "627753"
    },
    {
      "ip_prefix": "45.76.192.0/19",
      "alpha2code": "JP",
      "region": "JP-13",
      "city": "Shinagawa-ku",
      "postal_code": "142-0002"
    },
    {
      "ip_prefix": "45.76.224.0/21",
      "alpha2code": "US",
      "region": "US-IL",
      "city": "Elk Grove Village",
      "postal_code": "60007"
    },
    {
      "ip_prefix": "45.76.232.0/21",
      "alpha2code": "US",
      "region": "US-TX",
      "city": "Dallas",
      "postal_code": "75201"
    },
    {
      "ip_prefix": "45.76.240.0/21",
      "alpha2code": "US",
      "region": "US-WA",
      "city": "Kent",
      "postal_code": "98032"
    },
    {
      "ip_prefix": "45.76.248.0/21",
      "alpha2code": "US",
      "region": "US-GA",
      "city": "Atlanta",
      "postal_code": "30318"
    },
    {
      "ip_prefix": "45.77.0.0/21",
      "alpha2code": "US",
      "region": "US-CA",
      "city": "Santa Clara",
      "postal_code": "95054"
    },
    {
      "ip_prefix": "45.77.8.0/21",
      "alpha2code": "JP",
      "region": "JP-13",
      "city": "Shinagawa-ku",
      "postal_code": "142-0002"
    },
    {
      "ip_prefix": "45.77.16.0/20",
      "alpha2code": "JP",
      "region": "JP-13",
      "city": "Shinagawa-ku",
      "postal_code": "142-0002"
    },
    {
      "ip_prefix": "45.77.32.0/20",
      "alpha2code": "SG",
      "region": "SG-05",
      "city": "Singapore",
      "postal_code": "627753"
    },
    {
      "ip_prefix": "45.77.48.0/22",
      "alpha2code": "AU",
      "region": "AU-NSW",
      "city": "Alexandria",
      "postal_code": "2015"
    },
    {
      "ip_prefix": "45.77.52.0/22",
      "alpha2code": "DE",
      "region": "DE-HE",
      "city": "Frankfurt",
      "postal_code": "D-60314"
    },
    {
      "ip_prefix": "45.77.56.0/22",
      "alpha2code": "GB",
      "region": "GB-LND",
      "city": "London",
      "postal_code": "E1 6QR"
    },
    {
      "ip_prefix": "45.77.60.0/22",
      "alpha2code": "FR",
      "region": "FR-93",
      "city": "AUBERVILLIERS",
      "postal_code": "93300"
    },
    {
      "ip_prefix": "45.77.64.0/22",
      "alpha2code": "DE",
      "region": "DE-HE",
      "city": "Frankfurt",
      "postal_code": "D-60314"
    },
    {
      "ip_prefix": "45.77.68.0/22",
      "alpha2code": "US",
      "region": "US-CA",
      "city": "Los Angeles",
      "postal_code": "90012"
    },
    {
      "ip_prefix": "45.77.72.0/22",
      "alpha2code": "US",
      "region": "US-FL",
      "city": "Miami",
      "postal_code": "33142"
    },
    {
      "ip_prefix": "45.77.76.0/22",
      "alpha2code": "US",
      "region": "US-NJ",
      "city": "Piscataway",
      "postal_code": "08854"
    },
    {
      "ip_prefix": "45.77.80.0/22",
      "alpha2code": "US",
      "region": "US-FL",
      "city": "Miami",
      "postal_code": "33142"
    },
    {
      "ip_prefix": "45.77.84.0/22",
      "alpha2code": "US",
      "region": "US-CA",
      "city": "Los Angeles",
      "postal_code": "90012"
    },
    {
      "ip_prefix": "45.77.88.0/22",
      "alpha2code": "GB",
      "region": "GB-LND",
      "city": "London",
      "postal_code": "E1 6QR"
    },
    {
      "ip_prefix": "45.77.92.0/22",
      "alpha2code": "US",
      "region": "US-FL",
      "city": "Miami",
      "postal_code": "33142"
    },
    {
      "ip_prefix": "45.77.96.0/20",
      "alpha2code": "US",
      "region": "US-NJ",
      "city": "Piscataway",
      "postal_code": "08854"
    },
    {
      "ip_prefix": "45.77.112.0/21",
      "alpha2code": "US",
      "region": "US-FL",
      "city": "Miami",
      "postal_code": "33142"
    },
    {
      "ip_prefix": "45.77.120.0/21",
      "alpha2code": "US",
      "region": "US-CA",
      "city": "Los Angeles",
      "postal_code": "90012"
    },
    {
      "ip_prefix": "45.77.128.0/21",
      "alpha2code": "JP",
      "region": "JP-13",
      "city": "Shinagawa-ku",
      "postal_code": "142-0002"
    },
    {
      "ip_prefix": "45.77.136.0/22",
      "alpha2code": "NL",
      "region": "NL-NH",
      "city": "Amsterdam",
      "postal_code": "2031"
    },
    {
      "ip_prefix": "45.77.140.0/22",
      "alpha2code": "DE",
      "region": "DE-HE",
      "city": "Frankfurt",
      "postal_code": "D-60314"
    },
    {
      "ip_prefix": "45.77.144.0/20",
      "alpha2code": "US",
      "region": "US-NJ",
      "city": "Piscataway",
      "postal_code": "08854"
    },
    {
      "ip_prefix": "45.77.160.0/21",
      "alpha2code": "US",
      "region": "US-FL",
      "city": "Miami",
      "postal_code": "33142"
    },
    {
      "ip_prefix": "45.77.168.0/21",
      "alpha2code": "SG",
      "region": "SG-05",
      "city": "Singapore",
      "postal_code": "627753"
    },
    {
      "ip_prefix": "45.77.176.0/21",
      "alpha2code": "JP",
      "region": "JP-13",
      "city": "Shinagawa-ku",
      "postal_code": "142-0002"
    },
    {
      "ip_prefix": "45.77.184.0/21",
      "alpha2code": "US",
      "region": "US-CA",
      "city": "Santa Clara",
      "postal_code": "95054"
    },
    {
      "ip_prefix": "45.77.192.0/21",
      "alpha2code": "US",
      "region": "US-FL",
      "city": "Miami",
      "postal_code": "33142"
    },
    {
      "ip_prefix": "45.77.200.0/21",
      "alpha2code": "US",
      "region": "US-NJ",
      "city": "Piscataway",
      "postal_code": "08854"
    },
    {
      "ip_prefix": "45.77.208.0/21",
      "alpha2code": "US",
      "region": "US-WA",
      "city": "Kent",
      "postal_code": "98032"
    },
    {
      "ip_prefix": "45.77.216.0/21",
      "alpha2code": "US",
      "region": "US-NJ",
      "city": "Piscataway",
      "postal_code": "08854"
    },
    {
      "ip_prefix": "45.77.224.0/21",
      "alpha2code": "GB",
      "region": "GB-LND",
      "city": "London",
      "postal_code": "E1 6QR"
    },
    {
      "ip_prefix": "45.77.232.0/21",
      "alpha2code": "AU",
      "region": "AU-NSW",
      "city": "Alexandria",
      "postal_code": "2015"
    },
    {
      "ip_prefix": "45.77.240.0/20",
      "alpha2code": "SG",
      "region": "SG-05",
      "city": "Singapore",
      "postal_code": "627753"
    },
    {
      "ip_prefix": "62.67.42.0/24",
      "alpha2code": "DE",
      "region": "DE-HE",
      "city": "Frankfurt",
      "postal_code": "D-60314"
    },
    {
      "ip_prefix": "63.209.32.0/23",
      "alpha2code": "US",
      "region": "US-NJ",
      "city": "Piscataway",
      "postal_code": "08854"
    },
    {
      "ip_prefix": "63.209.35.0/24",
      "alpha2code": "US",
      "region": "US-NJ",
      "city": "Piscataway",
      "postal_code": "08854"
    },
    {
      "ip_prefix": "63.210.148.0/24",
      "alpha2code": "US",
      "region": "US-CA",
      "city": "Los Angeles",
      "postal_code": "90012"
    },
    {
      "ip_prefix": "63.211.111.0/24",
      "alpha2code": "US",
      "region": "US-CA",
      "city": "Los Angeles",
      "postal_code": "90012"
    },
    {
      "ip_prefix": "64.154.38.0/24",
      "alpha2code": "US",
      "region": "US-NJ",
      "city": "Piscataway",
      "postal_code": "08854"
    },
    {
      "ip_prefix": "64.156.14.0/24",
      "alpha2code": "US",
      "region": "US-CA",
      "city": "Los Angeles",
      "postal_code": "90012"
    },
    {
      "ip_prefix": "64.176.0.0/19",
      "alpha2code": "CL",
      "region": "CL-RM",
      "city": "Santiago",
      "postal_code": "8710067"
    },
    {
      "ip_prefix": "64.176.32.0/19",
      "alpha2code": "JP",
      "region": "JP-27",
      "city": "Osaka",
      "postal_code": "540-0001"
    },
    {
      "ip_prefix": "64.176.64.0/20",
      "alpha2code": "PL",
      "region": "PL-14",
      "city": "Warsaw",
      "postal_code": "02 222"
    },
    {
      "ip_prefix": "64.176.80.0/20",
      "alpha2code": "SG",
      "region": "SG-05",
      "city": "Singapore",
      "postal_code": "627753"
    },
    {
      "ip_prefix": "64.176.160.0/20",
      "alpha2code": "IL",
      "region": "IL-Tel Aviv",
      "city": "Rosh HaAyin",
      "postal_code": "4809139"
    },
    {
      "ip_prefix": "64.176.176.0/20",
      "alpha2code": "GB",
      "region": "GB-GB-MAN",
      "city": "Swinton, Manchester",
      "postal_code": "M27 8BX"
    },
    {
      "ip_prefix": "64.176.192.0/19",
      "alpha2code": "US",
      "region": "US-NJ",
      "city": "Piscataway",
      "postal_code": "08854"
    },
    {
      "ip_prefix": "64.176.224.0/19",
      "alpha2code": "KR",
      "region": "KR-11",
      "city": "Seoul",
      "postal_code": "03922"
    },
    {
      "ip_prefix": "64.237.32.0/19",
      "alpha2code": "US",
      "region": "US-NJ",
      "city": "Piscataway",
      "postal_code": "08854"
    },
    {
      "ip_prefix": "65.20.68.0/22",
      "alpha2code": "IN",
      "region": "IN-MH",
      "city": "Mumbai",
      "postal_code": "400072"
    },
    {
      "ip_prefix": "65.20.64.0/19",
      "alpha2code": "IN",
      "region": "IN-MH",
      "city": "Mumbai",
      "postal_code": "400072"
    },
    {
      "ip_prefix": "65.20.96.0/20",
      "alpha2code": "ES",
      "region": "ES-M",
      "city": "Madrid",
      "postal_code": "28108"
    },
    {
      "ip_prefix": "65.20.112.0/20",
      "alpha2code": "SE",
      "region": "SE-AB",
      "city": "Spanga",
      "postal_code": "163 53"
    },
    {
      "ip_prefix": "66.42.32.0/20",
      "alpha2code": "JP",
      "region": "JP-13",
      "city": "Shinagawa-ku",
      "postal_code": "142-0002"
    },
    {
      "ip_prefix": "66.42.48.0/20",
      "alpha2code": "SG",
      "region": "SG-05",
      "city": "Singapore",
      "postal_code": "627753"
    },
    {
      "ip_prefix": "66.42.64.0/20",
      "alpha2code": "US",
      "region": "US-WA",
      "city": "Kent",
      "postal_code": "98032"
    },
    {
      "ip_prefix": "66.42.80.0/20",
      "alpha2code": "US",
      "region": "US-GA",
      "city": "Atlanta",
      "postal_code": "30318"
    },
    {
      "ip_prefix": "66.42.96.0/20",
      "alpha2code": "US",
      "region": "US-CA",
      "city": "Los Angeles",
      "postal_code": "90012"
    },
    {
      "ip_prefix": "66.42.112.0/20",
      "alpha2code": "US",
      "region": "US-IL",
      "city": "Elk Grove Village",
      "postal_code": "60007"
    },
    {
      "ip_prefix": "66.55.128.0/19",
      "alpha2code": "US",
      "region": "US-NJ",
      "city": "Piscataway",
      "postal_code": "08854"
    },
    {
      "ip_prefix": "66.135.0.0/19",
      "alpha2code": "US",
      "region": "US-NJ",
      "city": "Piscataway",
      "postal_code": "08854"
    },
    {
      "ip_prefix": "66.245.192.0/21",
      "alpha2code": "GB",
      "region": "GB-GB-MAN",
      "city": "Swinton, Manchester",
      "postal_code": "M27 8BX"
    },
    {
      "ip_prefix": "67.219.96.0/20",
      "alpha2code": "AU",
      "region": "AU-VIC",
      "city": "Port Melbourne",
      "postal_code": "3207"
    },
    {
      "ip_prefix": "68.232.160.0/24",
      "alpha2code": "US",
      "region": "US-TX",
      "city": "Dallas",
      "postal_code": "75201"
    },
    {
      "ip_prefix": "68.232.161.0/24",
      "alpha2code": "US",
      "region": "US-TX",
      "city": "Dallas",
      "postal_code": "75201"
    },
    {
      "ip_prefix": "68.232.162.0/24",
      "alpha2code": "US",
      "region": "US-TX",
      "city": "Dallas",
      "postal_code": "75201"
    },
    {
      "ip_prefix": "68.232.163.0/24",
      "alpha2code": "US",
      "region": "US-TX",
      "city": "Dallas",
      "postal_code": "75201"
    },
    {
      "ip_prefix": "68.232.164.0/24",
      "alpha2code": "US",
      "region": "US-TX",
      "city": "Dallas",
      "postal_code": "75201"
    },
    {
      "ip_prefix": "68.232.165.0/24",
      "alpha2code": "US",
      "region": "US-TX",
      "city": "Dallas",
      "postal_code": "75201"
    },
    {
      "ip_prefix": "68.232.166.0/24",
      "alpha2code": "US",
      "region": "US-TX",
      "city": "Dallas",
      "postal_code": "75201"
    },
    {
      "ip_prefix": "68.232.167.0/24",
      "alpha2code": "US",
      "region": "US-IL",
      "city": "Elk Grove Village",
      "postal_code": "60007"
    },
    {
      "ip_prefix": "68.232.168.0/24",
      "alpha2code": "US",
      "region": "US-IL",
      "city": "Elk Grove Village",
      "postal_code": "60007"
    },
    {
      "ip_prefix": "68.232.169.0/24",
      "alpha2code": "US",
      "region": "US-IL",
      "city": "Elk Grove Village",
      "postal_code": "60007"
    },
    {
      "ip_prefix": "68.232.170.0/24",
      "alpha2code": "US",
      "region": "US-IL",
      "city": "Elk Grove Village",
      "postal_code": "60007"
    },
    {
      "ip_prefix": "68.232.171.0/24",
      "alpha2code": "US",
      "region": "US-IL",
      "city": "Elk Grove Village",
      "postal_code": "60007"
    },
    {
      "ip_prefix": "68.232.172.0/24",
      "alpha2code": "US",
      "region": "US-IL",
      "city": "Elk Grove Village",
      "postal_code": "60007"
    },
    {
      "ip_prefix": "68.232.173.0/24",
      "alpha2code": "US",
      "region": "US-IL",
      "city": "Elk Grove Village",
      "postal_code": "60007"
    },
    {
      "ip_prefix": "68.232.174.0/24",
      "alpha2code": "US",
      "region": "US-IL",
      "city": "Elk Grove Village",
      "postal_code": "60007"
    },
    {
      "ip_prefix": "68.232.175.0/24",
      "alpha2code": "US",
      "region": "US-NJ",
      "city": "Piscataway",
      "postal_code": "08854"
    },
    {
      "ip_prefix": "68.232.176.0/24",
      "alpha2code": "US",
      "region": "US-IL",
      "city": "Elk Grove Village",
      "postal_code": "60007"
    },
    {
      "ip_prefix": "68.232.177.0/24",
      "alpha2code": "US",
      "region": "US-IL",
      "city": "Elk Grove Village",
      "postal_code": "60007"
    },
    {
      "ip_prefix": "68.232.178.0/23",
      "alpha2code": "US",
      "region": "US-GA",
      "city": "Atlanta",
      "postal_code": "30318"
    },
    {
      "ip_prefix": "68.232.180.0/24",
      "alpha2code": "US",
      "region": "US-NJ",
      "city": "Piscataway",
      "postal_code": "08854"
    },
    {
      "ip_prefix": "68.232.181.0/24",
      "alpha2code": "US",
      "region": "US-IL",
      "city": "Elk Grove Village",
      "postal_code": "60007"
    },
    {
      "ip_prefix": "68.232.182.0/24",
      "alpha2code": "US",
      "region": "US-IL",
      "city": "Elk Grove Village",
      "postal_code": "60007"
    },
    {
      "ip_prefix": "68.232.183.0/24",
      "alpha2code": "US",
      "region": "US-IL",
      "city": "Elk Grove Village",
      "postal_code": "60007"
    },
    {
      "ip_prefix": "68.232.184.0/24",
      "alpha2code": "US",
      "region": "US-IL",
      "city": "Elk Grove Village",
      "postal_code": "60007"
    },
    {
      "ip_prefix": "68.232.185.0/24",
      "alpha2code": "US",
      "region": "US-NJ",
      "city": "Piscataway",
      "postal_code": "08854"
    },
    {
      "ip_prefix": "68.232.186.0/23",
      "alpha2code": "US",
      "region": "US-NJ",
      "city": "Piscataway",
      "postal_code": "08854"
    },
    {
      "ip_prefix": "68.232.188.0/23",
      "alpha2code": "US",
      "region": "US-NJ",
      "city": "Piscataway",
      "postal_code": "08854"
    },
    {
      "ip_prefix": "68.232.191.0/24",
      "alpha2code": "US",
      "region": "US-TX",
      "city": "Dallas",
      "postal_code": "75201"
    },
    {
      "ip_prefix": "70.34.192.0/19",
      "alpha2code": "SE",
      "region": "SE-AB",
      "city": "Spanga",
      "postal_code": "163 53"
    },
    {
      "ip_prefix": "70.34.240.0/20",
      "alpha2code": "PL",
      "region": "PL-14",
      "city": "Warsaw",
      "postal_code": "02 222"
    },
    {
      "ip_prefix": "78.141.192.0/20",
      "alpha2code": "GB",
      "region": "GB-LND",
      "city": "London",
      "postal_code": "E1 6QR"
    },
    {
      "ip_prefix": "78.141.208.0/20",
      "alpha2code": "NL",
      "region": "NL-NH",
      "city": "Amsterdam",
      "postal_code": "2031"
    },
    {
      "ip_prefix": "78.141.224.0/19",
      "alpha2code": "GB",
      "region": "GB-LND",
      "city": "London",
      "postal_code": "E1 6QR"
    },
    {
      "ip_prefix": "80.240.16.0/20",
      "alpha2code": "DE",
      "region": "DE-HE",
      "city": "Frankfurt",
      "postal_code": "D-60314"
    },
    {
      "ip_prefix": "89.167.134.0/24",
      "alpha2code": "FR",
      "region": "FR-93",
      "city": "AUBERVILLIERS",
      "postal_code": "93300"
    },
    {
      "ip_prefix": "95.179.128.0/20",
      "alpha2code": "NL",
      "region": "NL-NH",
      "city": "Amsterdam",
      "postal_code": "2031"
    },
    {
      "ip_prefix": "95.179.144.0/20",
      "alpha2code": "NL",
      "region": "NL-NH",
      "city": "Amsterdam",
      "postal_code": "2031"
    },
    {
      "ip_prefix": "95.179.160.0/20",
      "alpha2code": "DE",
      "region": "DE-HE",
      "city": "Frankfurt",
      "postal_code": "D-60314"
    },
    {
      "ip_prefix": "95.179.176.0/20",
      "alpha2code": "NL",
      "region": "NL-NH",
      "city": "Amsterdam",
      "postal_code": "2031"
    },
    {
      "ip_prefix": "95.179.192.0/20",
      "alpha2code": "GB",
      "region": "GB-LND",
      "city": "London",
      "postal_code": "E1 6QR"
    },
    {
      "ip_prefix": "95.179.208.0/20",
      "alpha2code": "FR",
      "region": "FR-93",
      "city": "AUBERVILLIERS",
      "postal_code": "93300"
    },
    {
      "ip_prefix": "95.179.224.0/20",
      "alpha2code": "GB",
      "region": "GB-LND",
      "city": "London",
      "postal_code": "E1 6QR"
    },
    {
      "ip_prefix": "95.179.240.0/20",
      "alpha2code": "DE",
      "region": "DE-HE",
      "city": "Frankfurt",
      "postal_code": "D-60314"
    },
    {
      "ip_prefix": "96.30.192.0/20",
      "alpha2code": "US",
      "region": "US-GA",
      "city": "Atlanta",
      "postal_code": "30318"
    },
    {
      "ip_prefix": "96.30.208.0/20",
      "alpha2code": "US",
      "region": "US-FL",
      "city": "Miami",
      "postal_code": "33142"
    },
    {
      "ip_prefix": "103.43.72.0/22",
      "alpha2code": "AU",
      "region": "AU-NSW",
      "city": "Alexandria",
      "postal_code": "2015"
    },
    {
      "ip_prefix": "103.123.128.0/24",
      "alpha2code": "US",
      "region": "US-FL",
      "city": "Miami",
      "postal_code": "33142"
    },
    {
      "ip_prefix": "104.156.224.0/22",
      "alpha2code": "US",
      "region": "US-NJ",
      "city": "Piscataway",
      "postal_code": "08854"
    },
    {
      "ip_prefix": "104.156.228.0/22",
      "alpha2code": "US",
      "region": "US-CA",
      "city": "Santa Clara",
      "postal_code": "95054"
    },
    {
      "ip_prefix": "104.156.232.0/23",
      "alpha2code": "AU",
      "region": "AU-NSW",
      "city": "Alexandria",
      "postal_code": "2015"
    },
    {
      "ip_prefix": "104.156.234.0/23",
      "alpha2code": "US",
      "region": "US-IL",
      "city": "Elk Grove Village",
      "postal_code": "60007"
    },
    {
      "ip_prefix": "104.156.236.0/23",
      "alpha2code": "US",
      "region": "US-TX",
      "city": "Dallas",
      "postal_code": "75201"
    },
    {
      "ip_prefix": "104.156.238.0/23",
      "alpha2code": "JP",
      "region": "JP-13",
      "city": "Shinagawa-ku",
      "postal_code": "142-0002"
    },
    {
      "ip_prefix": "104.156.240.0/21",
      "alpha2code": "US",
      "region": "US-FL",
      "city": "Miami",
      "postal_code": "33142"
    },
    {
      "ip_prefix": "104.156.248.0/22",
      "alpha2code": "US",
      "region": "US-NJ",
      "city": "Piscataway",
      "postal_code": "08854"
    },
    {
      "ip_prefix": "104.156.252.0/23",
      "alpha2code": "US",
      "region": "US-WA",
      "city": "Kent",
      "postal_code": "98032"
    },
    {
      "ip_prefix": "104.156.254.0/23",
      "alpha2code": "US",
      "region": "US-GA",
      "city": "Atlanta",
      "postal_code": "30318"
    },
    {
      "ip_prefix": "104.207.128.0/23",
      "alpha2code": "US",
      "region": "US-NJ",
      "city": "Piscataway",
      "postal_code": "08854"
    },
    {
      "ip_prefix": "104.207.130.0/23",
      "alpha2code": "DE",
      "region": "DE-HE",
      "city": "Frankfurt",
      "postal_code": "D-60314"
    },
    {
      "ip_prefix": "104.207.132.0/22",
      "alpha2code": "US",
      "region": "US-NJ",
      "city": "Piscataway",
      "postal_code": "08854"
    },
    {
      "ip_prefix": "104.207.136.0/21",
      "alpha2code": "US",
      "region": "US-IL",
      "city": "Elk Grove Village",
      "postal_code": "60007"
    },
    {
      "ip_prefix": "104.207.144.0/22",
      "alpha2code": "US",
      "region": "US-FL",
      "city": "Miami",
      "postal_code": "33142"
    },
    {
      "ip_prefix": "104.207.148.0/22",
      "alpha2code": "US",
      "region": "US-CA",
      "city": "Santa Clara",
      "postal_code": "95054"
    },
    {
      "ip_prefix": "104.207.152.0/22",
      "alpha2code": "US",
      "region": "US-CA",
      "city": "Los Angeles",
      "postal_code": "90012"
    },
    {
      "ip_prefix": "104.207.156.0/22",
      "alpha2code": "US",
      "region": "US-WA",
      "city": "Kent",
      "postal_code": "98032"
    },
    {
      "ip_prefix": "104.238.128.0/21",
      "alpha2code": "US",
      "region": "US-NJ",
      "city": "Piscataway",
      "postal_code": "08854"
    },
    {
      "ip_prefix": "104.238.136.0/23",
      "alpha2code": "US",
      "region": "US-FL",
      "city": "Miami",
      "postal_code": "33142"
    },
    {
      "ip_prefix": "104.238.138.0/23",
      "alpha2code": "US",
      "region": "US-FL",
      "city": "Miami",
      "postal_code": "33142"
    },
    {
      "ip_prefix": "104.238.140.0/22",
      "alpha2code": "US",
      "region": "US-CA",
      "city": "Los Angeles",
      "postal_code": "90012"
    },
    {
      "ip_prefix": "104.238.144.0/22",
      "alpha2code": "US",
      "region": "US-TX",
      "city": "Dallas",
      "postal_code": "75201"
    },
    {
      "ip_prefix": "104.238.148.0/22",
      "alpha2code": "JP",
      "region": "JP-13",
      "city": "Shinagawa-ku",
      "postal_code": "142-0002"
    },
    {
      "ip_prefix": "104.238.152.0/22",
      "alpha2code": "US",
      "region": "US-WA",
      "city": "Kent",
      "postal_code": "98032"
    },
    {
      "ip_prefix": "104.238.156.0/23",
      "alpha2code": "US",
      "region": "US-WA",
      "city": "Kent",
      "postal_code": "98032"
    },
    {
      "ip_prefix": "104.238.158.0/23",
      "alpha2code": "DE",
      "region": "DE-HE",
      "city": "Frankfurt",
      "postal_code": "D-60314"
    },
    {
      "ip_prefix": "104.238.160.0/23",
      "alpha2code": "JP",
      "region": "JP-13",
      "city": "Shinagawa-ku",
      "postal_code": "142-0002"
    },
    {
      "ip_prefix": "104.238.162.0/23",
      "alpha2code": "US",
      "region": "US-IL",
      "city": "Elk Grove Village",
      "postal_code": "60007"
    },
    {
      "ip_prefix": "104.238.164.0/23",
      "alpha2code": "US",
      "region": "US-IL",
      "city": "Elk Grove Village",
      "postal_code": "60007"
    },
    {
      "ip_prefix": "104.238.166.0/23",
      "alpha2code": "DE",
      "region": "DE-HE",
      "city": "Frankfurt",
      "postal_code": "D-60314"
    },
    {
      "ip_prefix": "104.238.168.0/21",
      "alpha2code": "GB",
      "region": "GB-LND",
      "city": "London",
      "postal_code": "E1 6QR"
    },
    {
      "ip_prefix": "104.238.176.0/23",
      "alpha2code": "DE",
      "region": "DE-HE",
      "city": "Frankfurt",
      "postal_code": "D-60314"
    },
    {
      "ip_prefix": "104.238.178.0/23",
      "alpha2code": "US",
      "region": "US-GA",
      "city": "Atlanta",
      "postal_code": "30318"
    },
    {
      "ip_prefix": "104.238.180.0/22",
      "alpha2code": "US",
      "region": "US-CA",
      "city": "Santa Clara",
      "postal_code": "95054"
    },
    {
      "ip_prefix": "104.238.184.0/22",
      "alpha2code": "GB",
      "region": "GB-LND",
      "city": "London",
      "postal_code": "E1 6QR"
    },
    {
      "ip_prefix": "104.238.188.0/22",
      "alpha2code": "FR",
      "region": "FR-93",
      "city": "AUBERVILLIERS",
      "postal_code": "93300"
    },
    {
      "ip_prefix": "104.250.122.0/23",
      "alpha2code": "US",
      "region": "US-CA",
      "city": "Los Angeles",
      "postal_code": "90012"
    },
    {
      "ip_prefix": "107.191.32.0/21",
      "alpha2code": "US",
      "region": "US-NJ",
      "city": "Piscataway",
      "postal_code": "08854"
    },
    {
      "ip_prefix": "107.191.40.0/22",
      "alpha2code": "US",
      "region": "US-NJ",
      "city": "Piscataway",
      "postal_code": "08854"
    },
    {
      "ip_prefix": "107.191.44.0/23",
      "alpha2code": "US",
      "region": "US-TX",
      "city": "Dallas",
      "postal_code": "75201"
    },
    {
      "ip_prefix": "107.191.46.0/23",
      "alpha2code": "FR",
      "region": "FR-93",
      "city": "AUBERVILLIERS",
      "postal_code": "93300"
    },
    {
      "ip_prefix": "107.191.48.0/22",
      "alpha2code": "US",
      "region": "US-IL",
      "city": "Elk Grove Village",
      "postal_code": "60007"
    },
    {
      "ip_prefix": "107.191.52.0/23",
      "alpha2code": "JP",
      "region": "JP-13",
      "city": "Shinagawa-ku",
      "postal_code": "142-0002"
    },
    {
      "ip_prefix": "107.191.54.0/23",
      "alpha2code": "US",
      "region": "US-TX",
      "city": "Dallas",
      "postal_code": "75201"
    },
    {
      "ip_prefix": "107.191.56.0/23",
      "alpha2code": "AU",
      "region": "AU-NSW",
      "city": "Alexandria",
      "postal_code": "2015"
    },
    {
      "ip_prefix": "107.191.58.0/23",
      "alpha2code": "US",
      "region": "US-CA",
      "city": "Los Angeles",
      "postal_code": "90012"
    },
    {
      "ip_prefix": "107.191.60.0/23",
      "alpha2code": "JP",
      "region": "JP-13",
      "city": "Shinagawa-ku",
      "postal_code": "142-0002"
    },
    {
      "ip_prefix": "107.191.62.0/23",
      "alpha2code": "FR",
      "region": "FR-93",
      "city": "AUBERVILLIERS",
      "postal_code": "93300"
    },
    {
      "ip_prefix": "108.61.0.0/18",
      "alpha2code": "US",
      "region": "US-NJ",
      "city": "Piscataway",
      "postal_code": "08854"
    },
    {
      "ip_prefix": "108.61.64.0/19",
      "alpha2code": "US",
      "region": "US-NJ",
      "city": "Piscataway",
      "postal_code": "08854"
    },
    {
      "ip_prefix": "108.61.96.0/24",
      "alpha2code": "AU",
      "region": "AU-NSW",
      "city": "Alexandria",
      "postal_code": "2015"
    },
    {
      "ip_prefix": "108.61.97.0/24",
      "alpha2code": "ES",
      "region": "ES-M",
      "city": "Madrid",
      "postal_code": "28108"
    },
    {
      "ip_prefix": "108.61.98.0/23",
      "alpha2code": "NL",
      "region": "NL-NH",
      "city": "Amsterdam",
      "postal_code": "2031"
    },
    {
      "ip_prefix": "108.61.100.0/23",
      "alpha2code": "US",
      "region": "US-IL",
      "city": "Elk Grove Village",
      "postal_code": "60007"
    },
    {
      "ip_prefix": "108.61.103.0/24",
      "alpha2code": "NL",
      "region": "NL-NH",
      "city": "Amsterdam",
      "postal_code": "2031"
    },
    {
      "ip_prefix": "108.61.104.0/24",
      "alpha2code": "US",
      "region": "US-GA",
      "city": "Atlanta",
      "postal_code": "30318"
    },
    {
      "ip_prefix": "108.61.105.0/24",
      "alpha2code": "FR",
      "region": "FR-93",
      "city": "AUBERVILLIERS",
      "postal_code": "93300"
    },
    {
      "ip_prefix": "108.61.108.0/22",
      "alpha2code": "US",
      "region": "US-TX",
      "city": "Dallas",
      "postal_code": "75201"
    },
    {
      "ip_prefix": "108.61.112.0/23",
      "alpha2code": "DE",
      "region": "DE-HE",
      "city": "Frankfurt",
      "postal_code": "D-60314"
    },
    {
      "ip_prefix": "108.61.114.0/24",
      "alpha2code": "US",
      "region": "US-CA",
      "city": "Los Angeles",
      "postal_code": "90012"
    },
    {
      "ip_prefix": "108.61.115.0/24",
      "alpha2code": "US",
      "region": "US-CA",
      "city": "Los Angeles",
      "postal_code": "90012"
    },
    {
      "ip_prefix": "108.61.116.0/24",
      "alpha2code": "GB",
      "region": "GB-LND",
      "city": "London",
      "postal_code": "E1 6QR"
    },
    {
      "ip_prefix": "108.61.117.0/24",
      "alpha2code": "NL",
      "region": "NL-NH",
      "city": "Amsterdam",
      "postal_code": "2031"
    },
    {
      "ip_prefix": "108.61.118.0/24",
      "alpha2code": "US",
      "region": "US-NJ",
      "city": "Piscataway",
      "postal_code": "08854"
    },
    {
      "ip_prefix": "108.61.119.0/24",
      "alpha2code": "US",
      "region": "US-IL",
      "city": "Elk Grove Village",
      "postal_code": "60007"
    },
    {
      "ip_prefix": "108.61.120.0/24",
      "alpha2code": "US",
      "region": "US-FL",
      "city": "Miami",
      "postal_code": "33142"
    },
    {
      "ip_prefix": "108.61.122.0/23",
      "alpha2code": "FR",
      "region": "FR-93",
      "city": "AUBERVILLIERS",
      "postal_code": "93300"
    },
    {
      "ip_prefix": "108.61.125.0/24",
      "alpha2code": "US",
      "region": "US-MO",
      "city": "St. Louis",
      "postal_code": "63101"
    },
    {
      "ip_prefix": "108.61.126.0/23",
      "alpha2code": "JP",
      "region": "JP-13",
      "city": "Shinagawa-ku",
      "postal_code": "142-0002"
    },
    {
      "ip_prefix": "108.61.128.0/19",
      "alpha2code": "US",
      "region": "US-NJ",
      "city": "Piscataway",
      "postal_code": "08854"
    },
    {
      "ip_prefix": "108.61.160.0/22",
      "alpha2code": "JP",
      "region": "JP-13",
      "city": "Shinagawa-ku",
      "postal_code": "142-0002"
    },
    {
      "ip_prefix": "108.61.164.0/22",
      "alpha2code": "NL",
      "region": "NL-NH",
      "city": "Amsterdam",
      "postal_code": "2031"
    },
    {
      "ip_prefix": "108.61.168.0/23",
      "alpha2code": "AU",
      "region": "AU-NSW",
      "city": "Alexandria",
      "postal_code": "2015"
    },
    {
      "ip_prefix": "108.61.170.0/23",
      "alpha2code": "DE",
      "region": "DE-HE",
      "city": "Frankfurt",
      "postal_code": "D-60314"
    },
    {
      "ip_prefix": "108.61.172.0/22",
      "alpha2code": "GB",
      "region": "GB-LND",
      "city": "London",
      "postal_code": "E1 6QR"
    },
    {
      "ip_prefix": "108.61.176.0/23",
      "alpha2code": "FR",
      "region": "FR-93",
      "city": "AUBERVILLIERS",
      "postal_code": "93300"
    },
    {
      "ip_prefix": "108.61.178.0/23",
      "alpha2code": "DE",
      "region": "DE-HE",
      "city": "Frankfurt",
      "postal_code": "D-60314"
    },
    {
      "ip_prefix": "108.61.180.0/22",
      "alpha2code": "JP",
      "region": "JP-13",
      "city": "Shinagawa-ku",
      "postal_code": "142-0002"
    },
    {
      "ip_prefix": "108.61.184.0/23",
      "alpha2code": "AU",
      "region": "AU-NSW",
      "city": "Alexandria",
      "postal_code": "2015"
    },
    {
      "ip_prefix": "108.61.186.0/23",
      "alpha2code": "JP",
      "region": "JP-13",
      "city": "Shinagawa-ku",
      "postal_code": "142-0002"
    },
    {
      "ip_prefix": "108.61.188.0/23",
      "alpha2code": "NL",
      "region": "NL-NH",
      "city": "Amsterdam",
      "postal_code": "2031"
    },
    {
      "ip_prefix": "108.61.190.0/24",
      "alpha2code": "DE",
      "region": "DE-HE",
      "city": "Frankfurt",
      "postal_code": "D-60314"
    },
    {
      "ip_prefix": "108.61.191.0/24",
      "alpha2code": "US",
      "region": "US-NJ",
      "city": "Piscataway",
      "postal_code": "08854"
    },
    {
      "ip_prefix": "108.61.192.0/23",
      "alpha2code": "US",
      "region": "US-GA",
      "city": "Atlanta",
      "postal_code": "30318"
    },
    {
      "ip_prefix": "108.61.194.0/23",
      "alpha2code": "US",
      "region": "US-WA",
      "city": "Kent",
      "postal_code": "98032"
    },
    {
      "ip_prefix": "108.61.196.0/23",
      "alpha2code": "GB",
      "region": "GB-LND",
      "city": "London",
      "postal_code": "E1 6QR"
    },
    {
      "ip_prefix": "108.61.198.0/23",
      "alpha2code": "NL",
      "region": "NL-NH",
      "city": "Amsterdam",
      "postal_code": "2031"
    },
    {
      "ip_prefix": "108.61.200.0/23",
      "alpha2code": "JP",
      "region": "JP-13",
      "city": "Shinagawa-ku",
      "postal_code": "142-0002"
    },
    {
      "ip_prefix": "108.61.202.0/23",
      "alpha2code": "US",
      "region": "US-IL",
      "city": "Elk Grove Village",
      "postal_code": "60007"
    },
    {
      "ip_prefix": "108.61.204.0/23",
      "alpha2code": "US",
      "region": "US-TX",
      "city": "Dallas",
      "postal_code": "75201"
    },
    {
      "ip_prefix": "108.61.206.0/23",
      "alpha2code": "US",
      "region": "US-CA",
      "city": "Los Angeles",
      "postal_code": "90012"
    },
    {
      "ip_prefix": "108.61.208.0/23",
      "alpha2code": "FR",
      "region": "FR-93",
      "city": "AUBERVILLIERS",
      "postal_code": "93300"
    },
    {
      "ip_prefix": "108.61.210.0/23",
      "alpha2code": "DE",
      "region": "DE-HE",
      "city": "Frankfurt",
      "postal_code": "D-60314"
    },
    {
      "ip_prefix": "108.61.212.0/23",
      "alpha2code": "AU",
      "region": "AU-NSW",
      "city": "Alexandria",
      "postal_code": "2015"
    },
    {
      "ip_prefix": "108.61.214.0/24",
      "alpha2code": "US",
      "region": "US-CA",
      "city": "Los Angeles",
      "postal_code": "90012"
    },
    {
      "ip_prefix": "108.61.215.0/24",
      "alpha2code": "US",
      "region": "US-GA",
      "city": "Atlanta",
      "postal_code": "30318"
    },
    {
      "ip_prefix": "108.61.216.0/22",
      "alpha2code": "US",
      "region": "US-CA",
      "city": "Los Angeles",
      "postal_code": "90012"
    },
    {
      "ip_prefix": "108.61.220.0/24",
      "alpha2code": "US",
      "region": "US-CA",
      "city": "Los Angeles",
      "postal_code": "90012"
    },
    {
      "ip_prefix": "108.61.221.0/24",
      "alpha2code": "GB",
      "region": "GB-LND",
      "city": "London",
      "postal_code": "E1 6QR"
    },
    {
      "ip_prefix": "108.61.222.0/24",
      "alpha2code": "US",
      "region": "US-TX",
      "city": "Dallas",
      "postal_code": "75201"
    },
    {
      "ip_prefix": "108.61.223.0/24",
      "alpha2code": "JP",
      "region": "JP-13",
      "city": "Shinagawa-ku",
      "postal_code": "142-0002"
    },
    {
      "ip_prefix": "108.61.224.0/24",
      "alpha2code": "US",
      "region": "US-TX",
      "city": "Dallas",
      "postal_code": "75201"
    },
    {
      "ip_prefix": "108.61.225.0/24",
      "alpha2code": "DE",
      "region": "DE-HE",
      "city": "Frankfurt",
      "postal_code": "D-60314"
    },
    {
      "ip_prefix": "108.61.226.0/24",
      "alpha2code": "US",
      "region": "US-FL",
      "city": "Miami",
      "postal_code": "33142"
    },
    {
      "ip_prefix": "108.61.228.0/23",
      "alpha2code": "US",
      "region": "US-IL",
      "city": "Elk Grove Village",
      "postal_code": "60007"
    },
    {
      "ip_prefix": "108.61.230.0/24",
      "alpha2code": "GB",
      "region": "GB-LND",
      "city": "London",
      "postal_code": "E1 6QR"
    },
    {
      "ip_prefix": "108.61.231.0/24",
      "alpha2code": "US",
      "region": "US-NJ",
      "city": "Piscataway",
      "postal_code": "08854"
    },
    {
      "ip_prefix": "108.61.232.0/24",
      "alpha2code": "US",
      "region": "US-MO",
      "city": "St. Louis",
      "postal_code": "63101"
    },
    {
      "ip_prefix": "108.61.234.0/24",
      "alpha2code": "US",
      "region": "US-CA",
      "city": "Los Angeles",
      "postal_code": "90012"
    },
    {
      "ip_prefix": "108.61.236.0/24",
      "alpha2code": "US",
      "region": "US-GA",
      "city": "Atlanta",
      "postal_code": "30318"
    },
    {
      "ip_prefix": "108.61.237.0/24",
      "alpha2code": "FR",
      "region": "FR-93",
      "city": "AUBERVILLIERS",
      "postal_code": "93300"
    },
    {
      "ip_prefix": "108.61.238.0/24",
      "alpha2code": "US",
      "region": "US-IL",
      "city": "Elk Grove Village",
      "postal_code": "60007"
    },
    {
      "ip_prefix": "108.61.239.0/24",
      "alpha2code": "US",
      "region": "US-TX",
      "city": "Dallas",
      "postal_code": "75201"
    },
    {
      "ip_prefix": "108.61.241.0/24",
      "alpha2code": "US",
      "region": "US-TX",
      "city": "Dallas",
      "postal_code": "75201"
    },
    {
      "ip_prefix": "108.61.242.0/24",
      "alpha2code": "US",
      "region": "US-IL",
      "city": "Elk Grove Village",
      "postal_code": "60007"
    },
    {
      "ip_prefix": "108.61.243.0/24",
      "alpha2code": "US",
      "region": "US-NJ",
      "city": "Piscataway",
      "postal_code": "08854"
    },
    {
      "ip_prefix": "108.61.245.0/24",
      "alpha2code": "US",
      "region": "US-NJ",
      "city": "Piscataway",
      "postal_code": "08854"
    },
    {
      "ip_prefix": "108.61.246.0/23",
      "alpha2code": "JP",
      "region": "JP-13",
      "city": "Shinagawa-ku",
      "postal_code": "142-0002"
    },
    {
      "ip_prefix": "108.61.248.0/24",
      "alpha2code": "US",
      "region": "US-NJ",
      "city": "Piscataway",
      "postal_code": "08854"
    },
    {
      "ip_prefix": "108.61.249.0/24",
      "alpha2code": "US",
      "region": "US-FL",
      "city": "Miami",
      "postal_code": "33142"
    },
    {
      "ip_prefix": "108.61.250.0/24",
      "alpha2code": "JP",
      "region": "JP-13",
      "city": "Shinagawa-ku",
      "postal_code": "142-0002"
    },
    {
      "ip_prefix": "108.61.251.0/24",
      "alpha2code": "AU",
      "region": "AU-NSW",
      "city": "Alexandria",
      "postal_code": "2015"
    },
    {
      "ip_prefix": "108.61.252.0/24",
      "alpha2code": "US",
      "region": "US-GA",
      "city": "Atlanta",
      "postal_code": "30318"
    },
    {
      "ip_prefix": "108.160.128.0/20",
      "alpha2code": "JP",
      "region": "JP-13",
      "city": "Shinagawa-ku",
      "postal_code": "142-0002"
    },
    {
      "ip_prefix": "136.244.64.0/20",
      "alpha2code": "GB",
      "region": "GB-LND",
      "city": "London",
      "postal_code": "E1 6QR"
    },
    {
      "ip_prefix": "136.244.80.0/20",
      "alpha2code": "DE",
      "region": "DE-HE",
      "city": "Frankfurt",
      "postal_code": "D-60314"
    },
    {
      "ip_prefix": "136.244.96.0/20",
      "alpha2code": "NL",
      "region": "NL-NH",
      "city": "Amsterdam",
      "postal_code": "2031"
    },
    {
      "ip_prefix": "136.244.112.0/20",
      "alpha2code": "FR",
      "region": "FR-93",
      "city": "AUBERVILLIERS",
      "postal_code": "93300"
    },
    {
      "ip_prefix": "137.220.32.0/20",
      "alpha2code": "US",
      "region": "US-WA",
      "city": "Kent",
      "postal_code": "98032"
    },
    {
      "ip_prefix": "137.220.48.0/22",
      "alpha2code": "US",
      "region": "US-TX",
      "city": "Dallas",
      "postal_code": "75201"
    },
    {
      "ip_prefix": "137.220.52.0/22",
      "alpha2code": "CA",
      "region": "CA-ON",
      "city": "Toronto, ON",
      "postal_code": "M5A 2&5"
    },
    {
      "ip_prefix": "137.220.56.0/21",
      "alpha2code": "US",
      "region": "US-IL",
      "city": "Elk Grove Village",
      "postal_code": "60007"
    },
    {
      "ip_prefix": "139.84.128.0/19",
      "alpha2code": "IN",
      "region": "IN-KA",
      "city": "Bangalore",
      "postal_code": "560066"
    },
    {
      "ip_prefix": "139.84.160.0/19",
      "alpha2code": "IN",
      "region": "IN-DL",
      "city": "Noida",
      "postal_code": "201309"
    },
    {
      "ip_prefix": "139.84.192.0/20",
      "alpha2code": "AU",
      "region": "AU-VIC",
      "city": "Port Melbourne",
      "postal_code": "3207"
    },
    {
      "ip_prefix": "139.84.208.0/20",
      "alpha2code": "IN",
      "region": "IN-KA",
      "city": "Bangalore",
      "postal_code": "560066"
    },
    {
      "ip_prefix": "139.84.224.0/19",
      "alpha2code": "ZA",
      "region": "ZA-GP",
      "city": "Isando Gauteng",
      "postal_code": "1600"
    },
    {
      "ip_prefix": "139.180.128.0/19",
      "alpha2code": "SG",
      "region": "SG-05",
      "city": "Singapore",
      "postal_code": "627753"
    },
    {
      "ip_prefix": "139.180.160.0/20",
      "alpha2code": "AU",
      "region": "AU-NSW",
      "city": "Alexandria",
      "postal_code": "2015"
    },
    {
      "ip_prefix": "139.180.176.0/21",
      "alpha2code": "AU",
      "region": "AU-NSW",
      "city": "Alexandria",
      "postal_code": "2015"
    },
    {
      "ip_prefix": "139.180.184.0/21",
      "alpha2code": "SG",
      "region": "SG-05",
      "city": "Singapore",
      "postal_code": "627753"
    },
    {
      "ip_prefix": "139.180.192.0/20",
      "alpha2code": "JP",
      "region": "JP-13",
      "city": "Shinagawa-ku",
      "postal_code": "142-0002"
    },
    {
      "ip_prefix": "139.180.208.0/20",
      "alpha2code": "SG",
      "region": "SG-05",
      "city": "Singapore",
      "postal_code": "627753"
    },
    {
      "ip_prefix": "140.82.0.0/20",
      "alpha2code": "US",
      "region": "US-NJ",
      "city": "Piscataway",
      "postal_code": "08854"
    },
    {
      "ip_prefix": "140.82.16.0/21",
      "alpha2code": "US",
      "region": "US-CA",
      "city": "Los Angeles",
      "postal_code": "90012"
    },
    {
      "ip_prefix": "140.82.24.0/21",
      "alpha2code": "US",
      "region": "US-FL",
      "city": "Miami",
      "postal_code": "33142"
    },
    {
      "ip_prefix": "140.82.32.0/21",
      "alpha2code": "DE",
      "region": "DE-HE",
      "city": "Frankfurt",
      "postal_code": "D-60314"
    },
    {
      "ip_prefix": "140.82.40.0/22",
      "alpha2code": "US",
      "region": "US-NJ",
      "city": "Piscataway",
      "postal_code": "08854"
    },
    {
      "ip_prefix": "140.82.44.0/22",
      "alpha2code": "US",
      "region": "US-NJ",
      "city": "Piscataway",
      "postal_code": "08854"
    },
    {
      "ip_prefix": "140.82.48.0/22",
      "alpha2code": "US",
      "region": "US-CA",
      "city": "Santa Clara",
      "postal_code": "95054"
    },
    {
      "ip_prefix": "140.82.52.0/22",
      "alpha2code": "FR",
      "region": "FR-93",
      "city": "AUBERVILLIERS",
      "postal_code": "93300"
    },
    {
      "ip_prefix": "140.82.56.0/22",
      "alpha2code": "NL",
      "region": "NL-NH",
      "city": "Amsterdam",
      "postal_code": "2031"
    },
    {
      "ip_prefix": "140.82.60.0/22",
      "alpha2code": "US",
      "region": "US-NJ",
      "city": "Piscataway",
      "postal_code": "08854"
    },
    {
      "ip_prefix": "141.164.32.0/19",
      "alpha2code": "KR",
      "region": "KR-11",
      "city": "Seoul",
      "postal_code": "03922"
    },
    {
      "ip_prefix": "144.202.0.0/20",
      "alpha2code": "US",
      "region": "US-NJ",
      "city": "Piscataway",
      "postal_code": "08854"
    },
    {
      "ip_prefix": "144.202.16.0/20",
      "alpha2code": "US",
      "region": "US-GA",
      "city": "Atlanta",
      "postal_code": "30318"
    },
    {
      "ip_prefix": "144.202.32.0/20",
      "alpha2code": "US",
      "region": "US-FL",
      "city": "Miami",
      "postal_code": "33142"
    },
    {
      "ip_prefix": "144.202.48.0/20",
      "alpha2code": "US",
      "region": "US-IL",
      "city": "Elk Grove Village",
      "postal_code": "60007"
    },
    {
      "ip_prefix": "144.202.64.0/20",
      "alpha2code": "US",
      "region": "US-TX",
      "city": "Dallas",
      "postal_code": "75201"
    },
    {
      "ip_prefix": "144.202.80.0/20",
      "alpha2code": "US",
      "region": "US-WA",
      "city": "Kent",
      "postal_code": "98032"
    },
    {
      "ip_prefix": "144.202.96.0/20",
      "alpha2code": "US",
      "region": "US-CA",
      "city": "Santa Clara",
      "postal_code": "95054"
    },
    {
      "ip_prefix": "144.202.112.0/20",
      "alpha2code": "US",
      "region": "US-CA",
      "city": "Los Angeles",
      "postal_code": "90012"
    },
    {
      "ip_prefix": "149.28.8.0/21",
      "alpha2code": "US",
      "region": "US-WA",
      "city": "Kent",
      "postal_code": "98032"
    },
    {
      "ip_prefix": "149.28.16.0/20",
      "alpha2code": "JP",
      "region": "JP-13",
      "city": "Shinagawa-ku",
      "postal_code": "142-0002"
    },
    {
      "ip_prefix": "149.28.32.0/19",
      "alpha2code": "US",
      "region": "US-NJ",
      "city": "Piscataway",
      "postal_code": "08854"
    },
    {
      "ip_prefix": "149.28.64.0/19",
      "alpha2code": "US",
      "region": "US-CA",
      "city": "Los Angeles",
      "postal_code": "90012"
    },
    {
      "ip_prefix": "149.28.96.0/20",
      "alpha2code": "US",
      "region": "US-FL",
      "city": "Miami",
      "postal_code": "33142"
    },
    {
      "ip_prefix": "149.28.112.0/20",
      "alpha2code": "US",
      "region": "US-IL",
      "city": "Elk Grove Village",
      "postal_code": "60007"
    },
    {
      "ip_prefix": "149.28.128.0/19",
      "alpha2code": "SG",
      "region": "SG-05",
      "city": "Singapore",
      "postal_code": "627753"
    },
    {
      "ip_prefix": "149.28.160.0/19",
      "alpha2code": "AU",
      "region": "AU-NSW",
      "city": "Alexandria",
      "postal_code": "2015"
    },
    {
      "ip_prefix": "149.28.192.0/19",
      "alpha2code": "US",
      "region": "US-CA",
      "city": "Santa Clara",
      "postal_code": "95054"
    },
    {
      "ip_prefix": "149.28.224.0/20",
      "alpha2code": "US",
      "region": "US-NJ",
      "city": "Piscataway",
      "postal_code": "08854"
    },
    {
      "ip_prefix": "149.28.240.0/20",
      "alpha2code": "US",
      "region": "US-TX",
      "city": "Dallas",
      "postal_code": "75201"
    },
    {
      "ip_prefix": "149.248.0.0/19",
      "alpha2code": "US",
      "region": "US-CA",
      "city": "Los Angeles",
      "postal_code": "90012"
    },
    {
      "ip_prefix": "149.248.32.0/20",
      "alpha2code": "US",
      "region": "US-WA",
      "city": "Kent",
      "postal_code": "98032"
    },
    {
      "ip_prefix": "149.248.48.0/20",
      "alpha2code": "CA",
      "region": "CA-ON",
      "city": "Toronto, ON",
      "postal_code": "M5A 2&5"
    },
    {
      "ip_prefix": "155.138.128.0/19",
      "alpha2code": "CA",
      "region": "CA-ON",
      "city": "Toronto, ON",
      "postal_code": "M5A 2&5"
    },
    {
      "ip_prefix": "155.138.160.0/20",
      "alpha2code": "US",
      "region": "US-GA",
      "city": "Atlanta",
      "postal_code": "30318"
    },
    {
      "ip_prefix": "155.138.176.0/20",
      "alpha2code": "US",
      "region": "US-CA",
      "city": "Santa Clara",
      "postal_code": "95054"
    },
    {
      "ip_prefix": "155.138.192.0/19",
      "alpha2code": "US",
      "region": "US-GA",
      "city": "Atlanta",
      "postal_code": "30318"
    },
    {
      "ip_prefix": "155.138.224.0/20",
      "alpha2code": "US",
      "region": "US-GA",
      "city": "Atlanta",
      "postal_code": "30318"
    },
    {
      "ip_prefix": "155.138.240.0/20",
      "alpha2code": "US",
      "region": "US-TX",
      "city": "Dallas",
      "postal_code": "75201"
    },
    {
      "ip_prefix": "157.119.25.0/24",
      "alpha2code": "US",
      "region": "US-NJ",
      "city": "Piscataway",
      "postal_code": "08854"
    },
    {
      "ip_prefix": "158.247.192.0/18",
      "alpha2code": "KR",
      "region": "KR-11",
      "city": "Seoul",
      "postal_code": "03922"
    },
    {
      "ip_prefix": "167.179.64.0/18",
      "alpha2code": "JP",
      "region": "JP-13",
      "city": "Shinagawa-ku",
      "postal_code": "142-0002"
    },
    {
      "ip_prefix": "173.199.64.0/24",
      "alpha2code": "NL",
      "region": "NL-NH",
      "city": "Amsterdam",
      "postal_code": "2031"
    },
    {
      "ip_prefix": "173.199.65.0/24",
      "alpha2code": "US",
      "region": "US-US-MO",
      "city": "Maryland Heights",
      "postal_code": "63043"
    },
    {
      "ip_prefix": "173.199.66.0/24",
      "alpha2code": "US",
      "region": "US-TX",
      "city": "Dallas",
      "postal_code": "75201"
    },
    {
      "ip_prefix": "173.199.70.0/23",
      "alpha2code": "FR",
      "region": "FR-93",
      "city": "AUBERVILLIERS",
      "postal_code": "93300"
    },
    {
      "ip_prefix": "173.199.72.0/21",
      "alpha2code": "GB",
      "region": "GB-LND",
      "city": "London",
      "postal_code": "E1 6QR"
    },
    {
      "ip_prefix": "173.199.80.0/24",
      "alpha2code": "US",
      "region": "US-CA",
      "city": "Los Angeles",
      "postal_code": "90012"
    },
    {
      "ip_prefix": "173.199.81.0/24",
      "alpha2code": "JP",
      "region": "JP-13",
      "city": "Shinagawa-ku",
      "postal_code": "142-0002"
    },
    {
      "ip_prefix": "173.199.83.0/24",
      "alpha2code": "US",
      "region": "US-NJ",
      "city": "Piscataway",
      "postal_code": "08854"
    },
    {
      "ip_prefix": "173.199.84.0/22",
      "alpha2code": "US",
      "region": "US-CA",
      "city": "Los Angeles",
      "postal_code": "90012"
    },
    {
      "ip_prefix": "173.199.88.0/21",
      "alpha2code": "US",
      "region": "US-IL",
      "city": "Elk Grove Village",
      "postal_code": "60007"
    },
    {
      "ip_prefix": "173.199.96.0/21",
      "alpha2code": "US",
      "region": "US-TX",
      "city": "Dallas",
      "postal_code": "75201"
    },
    {
      "ip_prefix": "173.199.104.0/24",
      "alpha2code": "US",
      "region": "US-GA",
      "city": "Atlanta",
      "postal_code": "30318"
    },
    {
      "ip_prefix": "173.199.105.0/24",
      "alpha2code": "DE",
      "region": "DE-HE",
      "city": "Frankfurt",
      "postal_code": "D-60314"
    },
    {
      "ip_prefix": "173.199.106.0/24",
      "alpha2code": "US",
      "region": "US-NJ",
      "city": "Piscataway",
      "postal_code": "08854"
    },
    {
      "ip_prefix": "173.199.107.0/24",
      "alpha2code": "DE",
      "region": "DE-HE",
      "city": "Frankfurt",
      "postal_code": "D-60314"
    },
    {
      "ip_prefix": "173.199.112.0/23",
      "alpha2code": "NL",
      "region": "NL-NH",
      "city": "Amsterdam",
      "postal_code": "2031"
    },
    {
      "ip_prefix": "173.199.114.0/23",
      "alpha2code": "US",
      "region": "US-NJ",
      "city": "Piscataway",
      "postal_code": "08854"
    },
    {
      "ip_prefix": "173.199.116.0/22",
      "alpha2code": "US",
      "region": "US-NJ",
      "city": "Piscataway",
      "postal_code": "08854"
    },
    {
      "ip_prefix": "173.199.120.0/22",
      "alpha2code": "US",
      "region": "US-NJ",
      "city": "Piscataway",
      "postal_code": "08854"
    },
    {
      "ip_prefix": "173.199.124.0/22",
      "alpha2code": "US",
      "region": "US-NJ",
      "city": "Piscataway",
      "postal_code": "08854"
    },
    {
      "ip_prefix": "185.92.220.0/23",
      "alpha2code": "NL",
      "region": "NL-NH",
      "city": "Amsterdam",
      "postal_code": "2031"
    },
    {
      "ip_prefix": "185.92.222.0/23",
      "alpha2code": "NL",
      "region": "NL-NH",
      "city": "Amsterdam",
      "postal_code": "2031"
    },
    {
      "ip_prefix": "192.248.128.0/20",
      "alpha2code": "NL",
      "region": "NL-NH",
      "city": "Amsterdam",
      "postal_code": "2031"
    },
    {
      "ip_prefix": "192.248.144.0/20",
      "alpha2code": "GB",
      "region": "GB-LND",
      "city": "London",
      "postal_code": "E1 6QR"
    },
    {
      "ip_prefix": "192.248.160.0/20",
      "alpha2code": "GB",
      "region": "GB-LND",
      "city": "London",
      "postal_code": "E1 6QR"
    },
    {
      "ip_prefix": "192.248.176.0/20",
      "alpha2code": "DE",
      "region": "DE-HE",
      "city": "Frankfurt",
      "postal_code": "D-60314"
    },
    {
      "ip_prefix": "195.122.134.0/24",
      "alpha2code": "DE",
      "region": "DE-HE",
      "city": "Frankfurt",
      "postal_code": "D-60314"
    },
    {
      "ip_prefix": "195.122.135.0/24",
      "alpha2code": "DE",
      "region": "DE-HE",
      "city": "Frankfurt",
      "postal_code": "D-60314"
    },
    {
      "ip_prefix": "198.13.32.0/20",
      "alpha2code": "JP",
      "region": "JP-13",
      "city": "Shinagawa-ku",
      "postal_code": "142-0002"
    },
    {
      "ip_prefix": "198.13.48.0/20",
      "alpha2code": "JP",
      "region": "JP-13",
      "city": "Shinagawa-ku",
      "postal_code": "142-0002"
    },
    {
      "ip_prefix": "198.89.85.0/24",
      "alpha2code": "US",
      "region": "US-NJ",
      "city": "Piscataway",
      "postal_code": "08854"
    },
    {
      "ip_prefix": "199.247.0.0/21",
      "alpha2code": "DE",
      "region": "DE-HE",
      "city": "Frankfurt",
      "postal_code": "D-60314"
    },
    {
      "ip_prefix": "199.247.8.0/21",
      "alpha2code": "FR",
      "region": "FR-93",
      "city": "AUBERVILLIERS",
      "postal_code": "93300"
    },
    {
      "ip_prefix": "199.247.16.0/21",
      "alpha2code": "DE",
      "region": "DE-HE",
      "city": "Frankfurt",
      "postal_code": "D-60314"
    },
    {
      "ip_prefix": "199.247.24.0/21",
      "alpha2code": "NL",
      "region": "NL-NH",
      "city": "Amsterdam",
      "postal_code": "2031"
    },
    {
      "ip_prefix": "202.182.96.0/20",
      "alpha2code": "JP",
      "region": "JP-13",
      "city": "Shinagawa-ku",
      "postal_code": "142-0002"
    },
    {
      "ip_prefix": "202.182.112.0/20",
      "alpha2code": "JP",
      "region": "JP-13",
      "city": "Shinagawa-ku",
      "postal_code": "142-0002"
    },
    {
      "ip_prefix": "207.148.0.0/21",
      "alpha2code": "US",
      "region": "US-TX",
      "city": "Dallas",
      "postal_code": "75201"
    },
    {
      "ip_prefix": "207.148.8.0/21",
      "alpha2code": "US",
      "region": "US-IL",
      "city": "Elk Grove Village",
      "postal_code": "60007"
    },
    {
      "ip_prefix": "207.148.16.0/20",
      "alpha2code": "US",
      "region": "US-NJ",
      "city": "Piscataway",
      "postal_code": "08854"
    },
    {
      "ip_prefix": "207.148.64.0/20",
      "alpha2code": "SG",
      "region": "SG-05",
      "city": "Singapore",
      "postal_code": "627753"
    },
    {
      "ip_prefix": "207.148.80.0/21",
      "alpha2code": "AU",
      "region": "AU-NSW",
      "city": "Alexandria",
      "postal_code": "2015"
    },
    {
      "ip_prefix": "207.148.88.0/21",
      "alpha2code": "JP",
      "region": "JP-13",
      "city": "Shinagawa-ku",
      "postal_code": "142-0002"
    },
    {
      "ip_prefix": "207.148.96.0/20",
      "alpha2code": "JP",
      "region": "JP-13",
      "city": "Shinagawa-ku",
      "postal_code": "142-0002"
    },
    {
      "ip_prefix": "207.148.112.0/22",
      "alpha2code": "JP",
      "region": "JP-13",
      "city": "Shinagawa-ku",
      "postal_code": "142-0002"
    },
    {
      "ip_prefix": "207.148.116.0/22",
      "alpha2code": "SG",
      "region": "SG-05",
      "city": "Singapore",
      "postal_code": "627753"
    },
    {
      "ip_prefix": "207.148.120.0/21",
      "alpha2code": "SG",
      "region": "SG-05",
      "city": "Singapore",
      "postal_code": "627753"
    },
    {
      "ip_prefix": "207.246.64.0/20",
      "alpha2code": "US",
      "region": "US-FL",
      "city": "Miami",
      "postal_code": "33142"
    },
    {
      "ip_prefix": "207.246.80.0/20",
      "alpha2code": "US",
      "region": "US-NJ",
      "city": "Piscataway",
      "postal_code": "08854"
    },
    {
      "ip_prefix": "207.246.96.0/20",
      "alpha2code": "US",
      "region": "US-CA",
      "city": "Los Angeles",
      "postal_code": "90012"
    },
    {
      "ip_prefix": "207.246.112.0/21",
      "alpha2code": "US",
      "region": "US-FL",
      "city": "Miami",
      "postal_code": "33142"
    },
    {
      "ip_prefix": "207.246.120.0/21",
      "alpha2code": "US",
      "region": "US-NJ",
      "city": "Piscataway",
      "postal_code": "08854"
    },
    {
      "ip_prefix": "208.72.152.0/22",
      "alpha2code": "US",
      "region": "US-HI",
      "city": "Honolulu",
      "postal_code": "96819"
    },
    {
      "ip_prefix": "208.76.220.0/22",
      "alpha2code": "ES",
      "region": "ES-M",
      "city": "Madrid",
      "postal_code": "28108"
    },
    {
      "ip_prefix": "208.83.232.0/21",
      "alpha2code": "US",
      "region": "US-HI",
      "city": "Honolulu",
      "postal_code": "96819"
    },
    {
      "ip_prefix": "208.85.16.0/21",
      "alpha2code": "ES",
      "region": "ES-M",
      "city": "Madrid",
      "postal_code": "28108"
    },
    {
      "ip_prefix": "208.167.225.0/24",
      "alpha2code": "US",
      "region": "US-NJ",
      "city": "Piscataway",
      "postal_code": "08854"
    },
    {
      "ip_prefix": "208.167.224.0/19",
      "alpha2code": "US",
      "region": "US-NJ",
      "city": "Piscataway",
      "postal_code": "08854"
    },
    {
      "ip_prefix": "209.222.0.0/20",
      "alpha2code": "US",
      "region": "US-NJ",
      "city": "Piscataway",
      "postal_code": "08854"
    },
    {
      "ip_prefix": "209.222.16.0/22",
      "alpha2code": "US",
      "region": "US-NJ",
      "city": "Piscataway",
      "postal_code": "08854"
    },
    {
      "ip_prefix": "209.222.20.0/23",
      "alpha2code": "US",
      "region": "US-NJ",
      "city": "Piscataway",
      "postal_code": "08854"
    },
    {
      "ip_prefix": "209.222.23.0/24",
      "alpha2code": "US",
      "region": "US-NJ",
      "city": "Piscataway",
      "postal_code": "08854"
    },
    {
      "ip_prefix": "209.222.24.0/22",
      "alpha2code": "US",
      "region": "US-NJ",
      "city": "Piscataway",
      "postal_code": "08854"
    },
    {
      "ip_prefix": "209.222.28.0/24",
      "alpha2code": "US",
      "region": "US-IL",
      "city": "Elk Grove Village",
      "postal_code": "60007"
    },
    {
      "ip_prefix": "209.222.29.0/24",
      "alpha2code": "US",
      "region": "US-CA",
      "city": "Los Angeles",
      "postal_code": "90012"
    },
    {
      "ip_prefix": "209.222.30.0/24",
      "alpha2code": "GB",
      "region": "GB-LND",
      "city": "London",
      "postal_code": "E1 6QR"
    },
    {
      "ip_prefix": "209.222.31.0/24",
      "alpha2code": "JP",
      "region": "JP-13",
      "city": "Shinagawa-ku",
      "postal_code": "142-0002"
    },
    {
      "ip_prefix": "209.246.143.0/24",
      "alpha2code": "US",
      "region": "US-NJ",
      "city": "Piscataway",
      "postal_code": "08854"
    },
    {
      "ip_prefix": "209.250.224.0/21",
      "alpha2code": "GB",
      "region": "GB-LND",
      "city": "London",
      "postal_code": "E1 6QR"
    },
    {
      "ip_prefix": "209.250.232.0/21",
      "alpha2code": "DE",
      "region": "DE-HE",
      "city": "Frankfurt",
      "postal_code": "D-60314"
    },
    {
      "ip_prefix": "209.250.240.0/21",
      "alpha2code": "NL",
      "region": "NL-NH",
      "city": "Amsterdam",
      "postal_code": "2031"
    },
    {
      "ip_prefix": "209.250.248.0/21",
      "alpha2code": "NL",
      "region": "NL-NH",
      "city": "Amsterdam",
      "postal_code": "2031"
    },
    {
      "ip_prefix": "212.187.208.0/23",
      "alpha2code": "GB",
      "region": "GB-LND",
      "city": "London",
      "postal_code": "E1 6QR"
    },
    {
      "ip_prefix": "212.187.246.0/23",
      "alpha2code": "GB",
      "region": "GB-LND",
      "city": "London",
      "postal_code": "E1 6QR"
    },
    {
      "ip_prefix": "216.128.128.0/20",
      "alpha2code": "US",
      "region": "US-TX",
      "city": "Dallas",
      "postal_code": "75201"
    },
    {
      "ip_prefix": "216.128.144.0/20",
      "alpha2code": "US",
      "region": "US-IL",
      "city": "Elk Grove Village",
      "postal_code": "60007"
    },
    {
      "ip_prefix": "216.128.176.0/20",
      "alpha2code": "CA",
      "region": "CA-ON",
      "city": "Toronto, ON",
      "postal_code": "M5A 2&5"
    },
    {
      "ip_prefix": "216.155.128.0/19",
      "alpha2code": "US",
      "region": "US-NJ",
      "city": "Piscataway",
      "postal_code": "08854"
    },
    {
      "ip_prefix": "216.238.64.0/19",
      "alpha2code": "MX",
      "region": "MX-CMX",
      "city": "Santiago de Queretaro",
      "postal_code": "76246"
    },
    {
      "ip_prefix": "216.238.96.0/19",
      "alpha2code": "BR",
      "region": "BR-SP",
      "city": "Osasco",
      "postal_code": "06268-120"
    },
    {
      "ip_prefix": "217.69.0.0/20",
      "alpha2code": "FR",
      "region": "FR-93",
      "city": "AUBERVILLIERS",
      "postal_code": "93300"
    },
    {
      "ip_prefix": "217.163.11.0/24",
      "alpha2code": "GB",
      "region": "GB-LND",
      "city": "London",
      "postal_code": "E1 6QR"
    },
    {
      "ip_prefix": "217.163.23.0/24",
      "alpha2code": "DE",
      "region": "DE-HE",
      "city": "Frankfurt",
      "postal_code": "D-60314"
    },
    {
      "ip_prefix": "217.163.28.0/23",
      "alpha2code": "DE",
      "region": "DE-HE",
      "city": "Frankfurt",
      "postal_code": "D-60314"
    },
    {
      "ip_prefix": "217.163.30.0/24",
      "alpha2code": "DE",
      "region": "DE-HE",
      "city": "Frankfurt",
      "postal_code": "D-60314"
    },
    {
      "ip_prefix": "2602:ffb0::/48",
      "alpha2code": "US",
      "region": "US-NJ",
      "city": "Piscataway",
      "postal_code": "08854"
    },
    {
      "ip_prefix": "2602:ffb0:1::/48",
      "alpha2code": "US",
      "region": "US-NJ",
      "city": "Piscataway",
      "postal_code": "08854"
    },
    {
      "ip_prefix": "2602:ffb0:2::/48",
      "alpha2code": "US",
      "region": "US-NJ",
      "city": "Piscataway",
      "postal_code": "08854"
    },
    {
      "ip_prefix": "2001:19f0:6400::/38",
      "alpha2code": "US",
      "region": "US-TX",
      "city": "Dallas",
      "postal_code": "75201"
    },
    {
      "ip_prefix": "2602:ffb0:7::/48",
      "alpha2code": "US",
      "region": "US-TX",
      "city": "Dallas",
      "postal_code": "75201"
    },
    {
      "ip_prefix": "2602:ffb0:1b::/48",
      "alpha2code": "US",
      "region": "US-TX",
      "city": "Dallas",
      "postal_code": "75201"
    },
    {
      "ip_prefix": "2602:ffb0:29::/48",
      "alpha2code": "US",
      "region": "US-TX",
      "city": "Dallas",
      "postal_code": "75201"
    },
    {
      "ip_prefix": "2001:19f0:8800::/38",
      "alpha2code": "US",
      "region": "US-MO",
      "city": "St. Louis",
      "postal_code": "63101"
    },
    {
      "ip_prefix": "2001:19f0:5c00::/38",
      "alpha2code": "US",
      "region": "US-IL",
      "city": "Elk Grove Village",
      "postal_code": "60007"
    },
    {
      "ip_prefix": "2001:19f0:ffff::/48",
      "alpha2code": "US",
      "region": "US-US-MO",
      "city": "Maryland Heights",
      "postal_code": "63043"
    },
    {
      "ip_prefix": "2001:19f0:9000::/38",
      "alpha2code": "US",
      "region": "US-FL",
      "city": "Miami",
      "postal_code": "33142"
    },
    {
      "ip_prefix": "2401:c080:1000::/38",
      "alpha2code": "JP",
      "region": "JP-13",
      "city": "Shinagawa-ku",
      "postal_code": "142-0002"
    },
    {
      "ip_prefix": "2001:19f0:7000::/38",
      "alpha2code": "JP",
      "region": "JP-13",
      "city": "Shinagawa-ku",
      "postal_code": "142-0002"
    },
    {
      "ip_prefix": "2001:19f0:7400::/38",
      "alpha2code": "GB",
      "region": "GB-LND",
      "city": "London",
      "postal_code": "E1 6QR"
    },
    {
      "ip_prefix": "2a05:f480:1000::/38",
      "alpha2code": "GB",
      "region": "GB-LND",
      "city": "London",
      "postal_code": "E1 6QR"
    },
    {
      "ip_prefix": "2a05:f480:1400::/38",
      "alpha2code": "NL",
      "region": "NL-NH",
      "city": "Amsterdam",
      "postal_code": "2031"
    },
    {
      "ip_prefix": "2001:19f0:5000::/38",
      "alpha2code": "NL",
      "region": "NL-NH",
      "city": "Amsterdam",
      "postal_code": "2031"
    },
    {
      "ip_prefix": "2001:19f0:6000::/38",
      "alpha2code": "US",
      "region": "US-CA",
      "city": "Los Angeles",
      "postal_code": "90012"
    },
    {
      "ip_prefix": "2001:19f0:6c00::/38",
      "alpha2code": "DE",
      "region": "DE-HE",
      "city": "Frankfurt",
      "postal_code": "D-60314"
    },
    {
      "ip_prefix": "2001:19f0:9400::/38",
      "alpha2code": "DE",
      "region": "DE-HE",
      "city": "Frankfurt",
      "postal_code": "D-60314"
    },
    {
      "ip_prefix": "2a05:f480:1800::/38",
      "alpha2code": "DE",
      "region": "DE-HE",
      "city": "Frankfurt",
      "postal_code": "D-60314"
    },
    {
      "ip_prefix": "2001:19f0:b000::/38",
      "alpha2code": "CA",
      "region": "CA-ON",
      "city": "Toronto, ON",
      "postal_code": "M5A 2&5"
    },
    {
      "ip_prefix": "2001:19f0:a800::/38",
      "alpha2code": "US",
      "region": "US-NJ",
      "city": "Piscataway",
      "postal_code": "08854"
    },
    {
      "ip_prefix": "2001:19f0:1400::/38",
      "alpha2code": "US",
      "region": "US-NJ",
      "city": "Piscataway",
      "postal_code": "08854"
    },
    {
      "ip_prefix": "2001:19f0:4000::/38",
      "alpha2code": "US",
      "region": "US-NJ",
      "city": "Piscataway",
      "postal_code": "08854"
    },
    {
      "ip_prefix": "2001:19f0:1000::/38",
      "alpha2code": "US",
      "region": "US-NJ",
      "city": "Piscataway",
      "postal_code": "08854"
    },
    {
      "ip_prefix": "2001:19f0::/38",
      "alpha2code": "US",
      "region": "US-NJ",
      "city": "Piscataway",
      "postal_code": "08854"
    },
    {
      "ip_prefix": "2001:19f0:ac00::/38",
      "alpha2code": "US",
      "region": "US-CA",
      "city": "Santa Clara",
      "postal_code": "95054"
    },
    {
      "ip_prefix": "2001:19f0:5400::/38",
      "alpha2code": "US",
      "region": "US-GA",
      "city": "Atlanta",
      "postal_code": "30318"
    },
    {
      "ip_prefix": "2001:19f0:4400::/38",
      "alpha2code": "SG",
      "region": "SG-05",
      "city": "Singapore",
      "postal_code": "627753"
    },
    {
      "ip_prefix": "2401:c080:1400::/38",
      "alpha2code": "SG",
      "region": "SG-05",
      "city": "Singapore",
      "postal_code": "627753"
    },
    {
      "ip_prefix": "2001:19f0:5800::/38",
      "alpha2code": "AU",
      "region": "AU-NSW",
      "city": "Alexandria",
      "postal_code": "2015"
    },
    {
      "ip_prefix": "2401:c080:1800::/38",
      "alpha2code": "AU",
      "region": "AU-NSW",
      "city": "Alexandria",
      "postal_code": "2015"
    },
    {
      "ip_prefix": "2001:19f0:6800::/38",
      "alpha2code": "FR",
      "region": "FR-93",
      "city": "AUBERVILLIERS",
      "postal_code": "93300"
    },
    {
      "ip_prefix": "2a05:f480:1c00::/38",
      "alpha2code": "FR",
      "region": "FR-93",
      "city": "AUBERVILLIERS",
      "postal_code": "93300"
    },
    {
      "ip_prefix": "2401:c080:1c00::/38",
      "alpha2code": "KR",
      "region": "KR-11",
      "city": "Seoul",
      "postal_code": "03922"
    },
    {
      "ip_prefix": "2001:19f0:8000::/38",
      "alpha2code": "US",
      "region": "US-WA",
      "city": "Kent",
      "postal_code": "98032"
    },
    {
      "ip_prefix": "2404:5780:3::/48",
      "alpha2code": "US",
      "region": "US-NJ",
      "city": "Piscataway",
      "postal_code": "08854"
    },
    {
      "ip_prefix": "2a05:f480:2000::/38",
      "alpha2code": "SE",
      "region": "SE-AB",
      "city": "Spanga",
      "postal_code": "163 53"
    },
    {
      "ip_prefix": "2001:19f0:b400::/38",
      "alpha2code": "MX",
      "region": "MX-CMX",
      "city": "Santiago de Queretaro",
      "postal_code": "76246"
    },
    {
      "ip_prefix": "2a05:f480:2400::/38",
      "alpha2code": "PL",
      "region": "PL-14",
      "city": "Warsaw",
      "postal_code": "02 222"
    },
    {
      "ip_prefix": "2a05:f480:2800::/38",
      "alpha2code": "ES",
      "region": "ES-M",
      "city": "Madrid",
      "postal_code": "28108"
    },
    {
      "ip_prefix": "2401:c080:2000::/38",
      "alpha2code": "AU",
      "region": "AU-VIC",
      "city": "Port Melbourne",
      "postal_code": "3207"
    },
    {
      "ip_prefix": "2001:19f0:c000::/38",
      "alpha2code": "US",
      "region": "US-HI",
      "city": "Honolulu",
      "postal_code": "96819"
    },
    {
      "ip_prefix": "2401:c080:2400::/38",
      "alpha2code": "IN",
      "region": "IN-MH",
      "city": "Mumbai",
      "postal_code": "400072"
    },
    {
      "ip_prefix": "2401:c080:3400::/38",
      "alpha2code": "IN",
      "region": "IN-DL",
      "city": "Noida",
      "postal_code": "201309"
    },
    {
      "ip_prefix": "2401:c080:3000::/38",
      "alpha2code": "IN",
      "region": "IN-KA",
      "city": "Bangalore",
      "postal_code": "560066"
    },
    {
      "ip_prefix": "2a05:f480:3000::/38",
      "alpha2code": "ZA",
      "region": "ZA-GP",
      "city": "Isando Gauteng",
      "postal_code": "1600"
    },
    {
      "ip_prefix": "2001:19f0:c800::/38",
      "alpha2code": "CL",
      "region": "CL-RM",
      "city": "Santiago",
      "postal_code": "8710067"
    },
    {
      "ip_prefix": "2401:c080:3800::/38",
      "alpha2code": "JP",
      "region": "JP-27",
      "city": "Osaka",
      "postal_code": "540-0001"
    },
    {
      "ip_prefix": "2001:19f0:b800::/38",
      "alpha2code": "BR",
      "region": "BR-SP",
      "city": "Osasco",
      "postal_code": "06268-120"
    },
    {
      "ip_prefix": "2a05:f480:2c00::/38",
      "alpha2code": "IL",
      "region": "IL-Tel Aviv",
      "city": "Rosh HaAyin",
      "postal_code": "4809139"
    },
    {
      "ip_prefix": "2a05:f480:3400::/38",
      "alpha2code": "GB",
      "region": "GB-GB-MAN",
      "city": "Swinton, Manchester",
      "postal_code": "M27 8BX"
    },
    {
      "ip_prefix": "2001:19f0:9800::/38",
      "alpha2code": "US",
      "region": "US-US-MO",
      "city": "Maryland Heights",
      "postal_code": "63043"
    }
  ]
}
